{
  "norad_id": 46034,
  "name": "STARLINK-1557",
  "history": [
    {
      "epoch": "2026-03-28T20:48:01.123488Z",
      "apogee_km": 478.74256510804753,
      "perigee_km": 476.6493421906398,
      "latitude_deg": 4.858861650129892e-05,
      "longitude_deg": -100.8360193725371,
      "height_km": 478.4422963744194,
      "semi_major_axis_km": 6855.832953649344,
      "eccentricity": 0.00015266,
      "inclination_deg": 53.1576,
      "raan_deg": 37.4496,
      "arg_perigee_deg": 81.7151,
      "mean_anomaly_deg": 278.4023,
      "mean_motion_rev_day": 15.29369487
    },
    {
      "epoch": "2026-03-29T03:04:25.982400Z",
      "apogee_km": 478.7078999989426,
      "perigee_km": 476.63059070660074,
      "latitude_deg": -2.120316574535664e-05,
      "longitude_deg": 163.58920339435394,
      "height_km": 478.47679141125377,
      "semi_major_axis_km": 6855.806245352771,
      "eccentricity": 0.0001515,
      "inclination_deg": 53.1574,
      "raan_deg": 36.2361,
      "arg_perigee_deg": 85.0511,
      "mean_anomaly_deg": 275.0662,
      "mean_motion_rev_day": 15.29378424
    },
    {
      "epoch": "2026-03-30T02:36:00.494784Z",
      "apogee_km": 478.6043250089506,
      "perigee_km": 476.8382559133279,
      "latitude_deg": -7.134226432436071e-05,
      "longitude_deg": 165.18197610806618,
      "height_km": 478.5998978034815,
      "semi_major_axis_km": 6855.858290461139,
      "eccentricity": 0.0001288,
      "inclination_deg": 53.1582,
      "raan_deg": 31.6889,
      "arg_perigee_deg": 88.7714,
      "mean_anomaly_deg": 271.3433,
      "mean_motion_rev_day": 15.29361009
    },
    {
      "epoch": "2026-03-30T02:36:00.495648Z",
      "apogee_km": 478.60425645036776,
      "perigee_km": 476.8383244719116,
      "latitude_deg": 1.0103396801249493e-05,
      "longitude_deg": 165.18203318271304,
      "height_km": 478.5998872872843,
      "semi_major_axis_km": 6855.858290461139,
      "eccentricity": 0.00012879,
      "inclination_deg": 53.1582,
      "raan_deg": 31.6889,
      "arg_perigee_deg": 88.7714,
      "mean_anomaly_deg": 271.3434,
      "mean_motion_rev_day": 15.29361009
    },
    {
      "epoch": "2026-03-30T13:34:44.470272Z",
      "apogee_km": 478.51280949895863,
      "perigee_km": 476.88221781822995,
      "latitude_deg": -4.121395063681958e-05,
      "longitude_deg": -2.0745187794557123,
      "height_km": 478.564466799476,
      "semi_major_axis_km": 6855.834513658594,
      "eccentricity": 0.00011892,
      "inclination_deg": 53.159,
      "raan_deg": 29.5665,
      "arg_perigee_deg": 87.8344,
      "mean_anomaly_deg": 272.2792,
      "mean_motion_rev_day": 15.29368965
    },
    {
      "epoch": "2026-03-30T19:51:09.402624Z",
      "apogee_km": 478.5665483564999,
      "perigee_km": 476.7852710463012,
      "latitude_deg": -1.3952149201127156e-05,
      "longitude_deg": -97.64943024701736,
      "height_km": 478.5943961133596,
      "semi_major_axis_km": 6855.8129097014,
      "eccentricity": 0.00012991,
      "inclination_deg": 53.1586,
      "raan_deg": 28.3531,
      "arg_perigee_deg": 91.346,
      "mean_anomaly_deg": 268.7689,
      "mean_motion_rev_day": 15.29376194
    },
    {
      "epoch": "2026-03-31T19:22:43.815648Z",
      "apogee_km": 479.27037850432407,
      "perigee_km": 476.2236236542449,
      "latitude_deg": -2.3119060725739722e-06,
      "longitude_deg": -96.05509560407467,
      "height_km": 478.24592398164066,
      "semi_major_axis_km": 6855.884001079284,
      "eccentricity": 0.0002222,
      "inclination_deg": 53.1586,
      "raan_deg": 23.807,
      "arg_perigee_deg": 74.8774,
      "mean_anomaly_deg": 285.2472,
      "mean_motion_rev_day": 15.29352406
    }
  ]
}